SL-3 R/B                
1 13403U 82079B   26059.93855971  .00008370  00000+0  33512-3 0  9990
2 13403  81.1463 203.4079 0024737 194.1684 165.8859 15.24640296376363
SL-14 R/B               
1 13553U 82092B   26059.76981985  .00000507  00000+0  54195-4 0  9992
2 13553  82.5706 149.7409 0019596 334.8124 143.8144 14.86655528327609
SL-3 R/B                
1 13819U 83010B   26059.95953475  .00018559  00000+0  37727-3 0  9999
2 13819  81.1049  12.9455 0018578  78.5509 281.7821 15.45982404356595
SL-3 R/B                
1 14208U 83075B   26059.97049406  .00012366  00000+0  32912-3 0  9996
2 14208  97.6134  64.2194 0019626 260.1985  99.7043 15.38164978328814
COSMOS 1536             
1 14699U 84013A   26059.65755172  .00006045  00000+0  25008-3 0  9997
2 14699  82.5446 116.8285 0013022 318.9663  41.0593 15.23685160271240
SL-14 R/B               
1 14820U 84027B   26059.93925690  .00000535  00000+0  58329-4 0  9994
2 14820  82.5380 253.2219 0018119   7.4527 352.6955 14.85965571246336
SL-8 R/B                
1 15483U 85006B   26059.96861929  .00000178  00000+0  67778-4 0  9996
2 15483  74.0436 277.1973 0018812 196.8931 266.2292 14.37777065152778
SL-12 R/B(2)            
1 15772U 85042D   26059.56876397  .00000091  00000+0  62423-4 0  9994
2 15772  71.1068 107.0002 0033698 143.0341  18.0970 14.21979573113099
SL-14 R/B               
1 15945U 85069B   26059.92668737  .00000620  00000+0  67332-4 0  9994
2 15945  82.5265  33.1727 0017721 217.6788 142.3189 14.86420818171531
SL-16 R/B               
1 16182U 85097B   26059.74657816  .00000122  00000+0  85334-4 0  9994
2 16182  71.0037 159.3805 0009830 269.9804 203.3024 14.16598980 85960
SL-14 R/B               
1 16496U 86006B   26059.97333543  .00000665  00000+0  68167-4 0  9993
2 16496  82.5236 267.9429 0075283 302.2694  57.1243 14.86801435147918
COSMOS 1743             
1 16719U 86034A   26059.52281617  .00033160  00000+0  44442-3 0  9992
2 16719  82.5305  83.4477 0002737 349.1088  11.0108 15.57808120178828
