CCSDS_OMM_VERS = 2.0
CREATION_DATE  = 
ORIGINATOR     = 

OBJECT_NAME    = SL-3 R/B
OBJECT_ID      = 1982-079B
CENTER_NAME    = EARTH
REF_FRAME      = TEME
TIME_SYSTEM    = UTC
MEAN_ELEMENT_THEORY = SGP/SGP4

EPOCH          = 2026-02-28T22:31:31.558944
MEAN_MOTION    = 15.24640296
ECCENTRICITY   = .00247377
INCLINATION    = 81.1463
RA_OF_ASC_NODE = 203.4079
ARG_OF_PERICENTER = 194.1684
MEAN_ANOMALY   = 165.8859

EPHEMERIS_TYPE = 0
CLASSIFICATION_TYPE = U
NORAD_CAT_ID   = 13403
ELEMENT_SET_NO = 999
REV_AT_EPOCH   = 37636
BSTAR          = .33511802E-3
MEAN_MOTION_DOT = .837E-4
MEAN_MOTION_DDOT = 0

CCSDS_OMM_VERS = 2.0
CREATION_DATE  = 
ORIGINATOR     = 

OBJECT_NAME    = SL-14 R/B
OBJECT_ID      = 1982-092B
CENTER_NAME    = EARTH
REF_FRAME      = TEME
TIME_SYSTEM    = UTC
MEAN_ELEMENT_THEORY = SGP/SGP4

EPOCH          = 2026-02-28T18:28:32.435040
MEAN_MOTION    = 14.86655528
ECCENTRICITY   = .00195967
INCLINATION    = 82.5706
RA_OF_ASC_NODE = 149.7409
ARG_OF_PERICENTER = 334.8124
MEAN_ANOMALY   = 143.8144

EPHEMERIS_TYPE = 0
CLASSIFICATION_TYPE = U
NORAD_CAT_ID   = 13553
ELEMENT_SET_NO = 999
REV_AT_EPOCH   = 32760
BSTAR          = .54195202E-4
MEAN_MOTION_DOT = .507E-5
MEAN_MOTION_DDOT = 0

CCSDS_OMM_VERS = 2.0
CREATION_DATE  = 
ORIGINATOR     = 

OBJECT_NAME    = SL-3 R/B
OBJECT_ID      = 1983-010B
CENTER_NAME    = EARTH
REF_FRAME      = TEME
TIME_SYSTEM    = UTC
MEAN_ELEMENT_THEORY = SGP/SGP4

EPOCH          = 2026-02-28T23:01:43.802400
MEAN_MOTION    = 15.45982404
ECCENTRICITY   = .00185785
INCLINATION    = 81.1049
RA_OF_ASC_NODE = 12.9455
ARG_OF_PERICENTER = 78.5509
MEAN_ANOMALY   = 281.7821

EPHEMERIS_TYPE = 0
CLASSIFICATION_TYPE = U
NORAD_CAT_ID   = 13819
ELEMENT_SET_NO = 999
REV_AT_EPOCH   = 35659
BSTAR          = .37726513E-3
MEAN_MOTION_DOT = .18559E-3
MEAN_MOTION_DDOT = 0

CCSDS_OMM_VERS = 2.0
CREATION_DATE  = 
ORIGINATOR     = 

OBJECT_NAME    = SL-3 R/B
OBJECT_ID      = 1983-075B
CENTER_NAME    = EARTH
REF_FRAME      = TEME
TIME_SYSTEM    = UTC
MEAN_ELEMENT_THEORY = SGP/SGP4

EPOCH          = 2026-02-28T23:17:30.686784
MEAN_MOTION    = 15.38164978
ECCENTRICITY   = .00196269
INCLINATION    = 97.6134
RA_OF_ASC_NODE = 64.2194
ARG_OF_PERICENTER = 260.1985
MEAN_ANOMALY   = 99.7043

EPHEMERIS_TYPE = 0
CLASSIFICATION_TYPE = U
NORAD_CAT_ID   = 14208
ELEMENT_SET_NO = 999
REV_AT_EPOCH   = 32881
BSTAR          = .32912333E-3
MEAN_MOTION_DOT = .12366E-3
MEAN_MOTION_DDOT = 0

CCSDS_OMM_VERS = 2.0
CREATION_DATE  = 
ORIGINATOR     = 

OBJECT_NAME    = COSMOS 1536
OBJECT_ID      = 1984-013A
CENTER_NAME    = EARTH
REF_FRAME      = TEME
TIME_SYSTEM    = UTC
MEAN_ELEMENT_THEORY = SGP/SGP4

EPOCH          = 2026-02-28T15:46:52.468608
MEAN_MOTION    = 15.23685160
ECCENTRICITY   = .00130224
INCLINATION    = 82.5446
RA_OF_ASC_NODE = 116.8285
ARG_OF_PERICENTER = 318.9663
MEAN_ANOMALY   = 41.0593

EPHEMERIS_TYPE = 0
CLASSIFICATION_TYPE = U
NORAD_CAT_ID   = 14699
ELEMENT_SET_NO = 999
REV_AT_EPOCH   = 27124
BSTAR          = .25008323E-3
MEAN_MOTION_DOT = .6045E-4
MEAN_MOTION_DDOT = 0

CCSDS_OMM_VERS = 2.0
CREATION_DATE  = 
ORIGINATOR     = 

OBJECT_NAME    = SL-14 R/B
OBJECT_ID      = 1984-027B
CENTER_NAME    = EARTH
REF_FRAME      = TEME
TIME_SYSTEM    = UTC
MEAN_ELEMENT_THEORY = SGP/SGP4

EPOCH          = 2026-02-28T22:32:31.796160
MEAN_MOTION    = 14.85965571
ECCENTRICITY   = .0018119
INCLINATION    = 82.5380
RA_OF_ASC_NODE = 253.2219
ARG_OF_PERICENTER = 7.4527
MEAN_ANOMALY   = 352.6955

EPHEMERIS_TYPE = 0
CLASSIFICATION_TYPE = U
NORAD_CAT_ID   = 14820
ELEMENT_SET_NO = 999
REV_AT_EPOCH   = 24633
BSTAR          = .58329E-4
MEAN_MOTION_DOT = .535E-5
MEAN_MOTION_DDOT = 0

CCSDS_OMM_VERS = 2.0
CREATION_DATE  = 
ORIGINATOR     = 

OBJECT_NAME    = SL-8 R/B
OBJECT_ID      = 1985-006B
CENTER_NAME    = EARTH
REF_FRAME      = TEME
TIME_SYSTEM    = UTC
MEAN_ELEMENT_THEORY = SGP/SGP4

EPOCH          = 2026-02-28T23:14:48.706656
MEAN_MOTION    = 14.37777065
ECCENTRICITY   = .00188123
INCLINATION    = 74.0436
RA_OF_ASC_NODE = 277.1973
ARG_OF_PERICENTER = 196.8931
MEAN_ANOMALY   = 266.2292

EPHEMERIS_TYPE = 0
CLASSIFICATION_TYPE = U
NORAD_CAT_ID   = 15483
ELEMENT_SET_NO = 999
REV_AT_EPOCH   = 15277
BSTAR          = .67777979E-4
MEAN_MOTION_DOT = .178E-5
MEAN_MOTION_DDOT = 0

CCSDS_OMM_VERS = 2.0
CREATION_DATE  = 
ORIGINATOR     = 

OBJECT_NAME    = SL-12 R/B(2)
OBJECT_ID      = 1985-042D
CENTER_NAME    = EARTH
REF_FRAME      = TEME
TIME_SYSTEM    = UTC
MEAN_ELEMENT_THEORY = SGP/SGP4

EPOCH          = 2026-02-28T13:39:01.207008
MEAN_MOTION    = 14.21979573
ECCENTRICITY   = .00336986
INCLINATION    = 71.1068
RA_OF_ASC_NODE = 107.0002
ARG_OF_PERICENTER = 143.0341
MEAN_ANOMALY   = 18.0970

EPHEMERIS_TYPE = 0
CLASSIFICATION_TYPE = U
NORAD_CAT_ID   = 15772
ELEMENT_SET_NO = 999
REV_AT_EPOCH   = 11309
BSTAR          = .62422579E-4
MEAN_MOTION_DOT = .91E-6
MEAN_MOTION_DDOT = 0

CCSDS_OMM_VERS = 2.0
CREATION_DATE  = 
ORIGINATOR     = 

OBJECT_NAME    = SL-14 R/B
OBJECT_ID      = 1985-069B
CENTER_NAME    = EARTH
REF_FRAME      = TEME
TIME_SYSTEM    = UTC
MEAN_ELEMENT_THEORY = SGP/SGP4

EPOCH          = 2026-02-28T22:14:25.788768
MEAN_MOTION    = 14.86420818
ECCENTRICITY   = .00177217
INCLINATION    = 82.5265
RA_OF_ASC_NODE = 33.1727
ARG_OF_PERICENTER = 217.6788
MEAN_ANOMALY   = 142.3189

EPHEMERIS_TYPE = 0
CLASSIFICATION_TYPE = U
NORAD_CAT_ID   = 15945
ELEMENT_SET_NO = 999
REV_AT_EPOCH   = 17153
BSTAR          = .6733216E-4
MEAN_MOTION_DOT = .62E-5
MEAN_MOTION_DDOT = 0

CCSDS_OMM_VERS = 2.0
CREATION_DATE  = 
ORIGINATOR     = 

OBJECT_NAME    = SL-16 R/B
OBJECT_ID      = 1985-097B
CENTER_NAME    = EARTH
REF_FRAME      = TEME
TIME_SYSTEM    = UTC
MEAN_ELEMENT_THEORY = SGP/SGP4

EPOCH          = 2026-02-28T17:55:04.353024
MEAN_MOTION    = 14.16598980
ECCENTRICITY   = .00098301
INCLINATION    = 71.0037
RA_OF_ASC_NODE = 159.3805
ARG_OF_PERICENTER = 269.9804
MEAN_ANOMALY   = 203.3024

EPHEMERIS_TYPE = 0
CLASSIFICATION_TYPE = U
NORAD_CAT_ID   = 16182
ELEMENT_SET_NO = 999
REV_AT_EPOCH   = 8596
BSTAR          = .85334034E-4
MEAN_MOTION_DOT = .122E-5
MEAN_MOTION_DDOT = 0

CCSDS_OMM_VERS = 2.0
CREATION_DATE  = 
ORIGINATOR     = 

OBJECT_NAME    = SL-14 R/B
OBJECT_ID      = 1986-006B
CENTER_NAME    = EARTH
REF_FRAME      = TEME
TIME_SYSTEM    = UTC
MEAN_ELEMENT_THEORY = SGP/SGP4

EPOCH          = 2026-02-28T23:21:36.181152
MEAN_MOTION    = 14.86801435
ECCENTRICITY   = .00752832
INCLINATION    = 82.5236
RA_OF_ASC_NODE = 267.9429
ARG_OF_PERICENTER = 302.2694
MEAN_ANOMALY   = 57.1243

EPHEMERIS_TYPE = 0
CLASSIFICATION_TYPE = U
NORAD_CAT_ID   = 16496
ELEMENT_SET_NO = 999
REV_AT_EPOCH   = 14791
BSTAR          = .68167246E-4
MEAN_MOTION_DOT = .665E-5
MEAN_MOTION_DDOT = 0

CCSDS_OMM_VERS = 2.0
CREATION_DATE  = 
ORIGINATOR     = 

OBJECT_NAME    = COSMOS 1743
OBJECT_ID      = 1986-034A
CENTER_NAME    = EARTH
REF_FRAME      = TEME
TIME_SYSTEM    = UTC
MEAN_ELEMENT_THEORY = SGP/SGP4

EPOCH          = 2026-02-28T12:32:51.317088
MEAN_MOTION    = 15.57808120
ECCENTRICITY   = .00027378
INCLINATION    = 82.5305
RA_OF_ASC_NODE = 83.4477
ARG_OF_PERICENTER = 349.1088
MEAN_ANOMALY   = 11.0108

EPHEMERIS_TYPE = 0
CLASSIFICATION_TYPE = U
NORAD_CAT_ID   = 16719
ELEMENT_SET_NO = 999
REV_AT_EPOCH   = 17882
BSTAR          = .44441596E-3
MEAN_MOTION_DOT = .3316E-3
MEAN_MOTION_DDOT = 0

